start=new Date('2023-02-21T00:00:00.000Z').valueOf();
sats=[{"RCS_SIZE":"LARGE","INCLINATION":"53.0539","PERIAPSIS":"546.030","TIME_SYSTEM":"UTC","CENTER_NAME":"EARTH","LAUNCH_DATE":"2020-06-04","TLE_LINE1":"1 45673U 20035S   23051.96412615  .00024262  00000-0  16413-2 0  9993","ARG_OF_PERICENTER":"106.7752","DECAY_DATE":null,"RA_OF_ASC_NODE":"21.8380","TLE_LINE2":"2 45673  53.0539  21.8380 0001630 106.7752 253.3416 15.06417911150614","REV_AT_EPOCH":"15061","EPHEMERIS_TYPE":"0","ELEMENT_SET_NO":"999","ECCENTRICITY":"0.00016300","EPOCH":"2023-02-20T23:08:20.499360","OBJECT_TYPE":"PAYLOAD","GP_ID":"226180141","MEAN_ELEMENT_THEORY":"SGP4","NORAD_CAT_ID":"45673","SEMIMAJOR_AXIS":"6925.294","CLASSIFICATION_TYPE":"U","MEAN_MOTION_DDOT":"0.0000000000000","APOAPSIS":"548.287","MEAN_MOTION_DOT":"0.00024262","PERIOD":"95.591","COUNTRY_CODE":"US","SITE":"AFETR","OBJECT_ID":"2020-035S","MEAN_ANOMALY":"253.3416","BSTAR":"0.00164130000000","OBJECT_NAME":"STARLINK-1456","MEAN_MOTION":"15.06417911","REF_FRAME":"TEME","FILE":"3816742"},{"REF_FRAME":"TEME","FILE":"3816742","MEAN_MOTION":"15.06378165","OBJECT_NAME":"STARLINK-1457","MEAN_ANOMALY":"270.5692","OBJECT_ID":"2020-035T","BSTAR":"-0.00038753000000","MEAN_MOTION_DOT":"-0.00006045","PERIOD":"95.594","COUNTRY_CODE":"US","SITE":"AFETR","SEMIMAJOR_AXIS":"6925.415","CLASSIFICATION_TYPE":"U","MEAN_MOTION_DDOT":"0.0000000000000","APOAPSIS":"547.943","MEAN_ELEMENT_THEORY":"SGP4","NORAD_CAT_ID":"45674","GP_ID":"226180142","OBJECT_TYPE":"PAYLOAD","ECCENTRICITY":"0.00009560","EPOCH":"2023-02-20T21:43:24.782016","REV_AT_EPOCH":"15061","EPHEMERIS_TYPE":"0","ELEMENT_SET_NO":"999","RA_OF_ASC_NODE":"22.1074","TLE_LINE2":"2 45674  53.0558  22.1074 0000956  89.5407 270.5692 15.06378165150619","ARG_OF_PERICENTER":"89.5407","DECAY_DATE":null,"TIME_SYSTEM":"UTC","LAUNCH_DATE":"2020-06-04","CENTER_NAME":"EARTH","TLE_LINE1":"1 45674U 20035T   23051.90514794 -.00006045  00000-0 -38753-3 0  9992","RCS_SIZE":"LARGE","INCLINATION":"53.0558","PERIAPSIS":"546.618"},{"SEMIMAJOR_AXIS":"6925.340","MEAN_MOTION_DDOT":"0.0000000000000","CLASSIFICATION_TYPE":"U","APOAPSIS":"548.099","MEAN_MOTION_DOT":"0.00008512","PERIOD":"95.592","SITE":"AFETR","COUNTRY_CODE":"US","OBJECT_NAME":"STARLINK-1458","OBJECT_ID":"2020-035U","MEAN_ANOMALY":"265.9834","BSTAR":"0.00058961000000","REF_FRAME":"TEME","FILE":"3814133","MEAN_MOTION":"15.06402936","TIME_SYSTEM":"UTC","LAUNCH_DATE":"2020-06-04","CENTER_NAME":"EARTH","TLE_LINE1":"1 45675U 20035U   23051.29696610  .00008512  00000-0  58961-3 0  9995","RCS_SIZE":"LARGE","INCLINATION":"53.0532","PERIAPSIS":"546.310","RA_OF_ASC_NODE":"24.8300","TLE_LINE2":"2 45675  53.0532  24.8300 0001291  94.1302 265.9834 15.06402936150500","ARG_OF_PERICENTER":"94.1302","DECAY_DATE":null,"ECCENTRICITY":"0.00012910","EPOCH":"2023-02-20T07:07:37.871040","REV_AT_EPOCH":"15050","EPHEMERIS_TYPE":"0","ELEMENT_SET_NO":"999","MEAN_ELEMENT_THEORY":"SGP4","NORAD_CAT_ID":"45675","OBJECT_TYPE":"PAYLOAD","GP_ID":"226101524"},{"INCLINATION":"53.0536","PERIAPSIS":"546.475","RCS_SIZE":"LARGE","TLE_LINE1":"1 45676U 20035V   23051.93094798  .00026874  00000-0  18169-2 0  9992","CENTER_NAME":"EARTH","LAUNCH_DATE":"2020-06-04","TIME_SYSTEM":"UTC","DECAY_DATE":null,"ARG_OF_PERICENTER":"121.7893","TLE_LINE2":"2 45676  53.0536  21.9937 0001132 121.7893 238.3206 15.06385115150602","RA_OF_ASC_NODE":"21.9937","ELEMENT_SET_NO":"999","EPHEMERIS_TYPE":"0","REV_AT_EPOCH":"15060","EPOCH":"2023-02-20T22:20:33.905472","ECCENTRICITY":"0.00011320","OBJECT_TYPE":"PAYLOAD","GP_ID":"226180147","NORAD_CAT_ID":"45676","MEAN_ELEMENT_THEORY":"SGP4","APOAPSIS":"548.043","CLASSIFICATION_TYPE":"U","MEAN_MOTION_DDOT":"0.0000000000000","SEMIMAJOR_AXIS":"6925.394","COUNTRY_CODE":"US","SITE":"AFETR","PERIOD":"95.593","MEAN_MOTION_DOT":"0.00026874","BSTAR":"0.00181690000000","MEAN_ANOMALY":"238.3206","OBJECT_ID":"2020-035V","OBJECT_NAME":"STARLINK-1460","MEAN_MOTION":"15.06385115","FILE":"3816742","REF_FRAME":"TEME"},{"EPOCH":"2023-02-20T09:52:10.501824","ECCENTRICITY":"0.00013930","REV_AT_EPOCH":"15093","ELEMENT_SET_NO":"999","EPHEMERIS_TYPE":"0","MEAN_ELEMENT_THEORY":"SGP4","NORAD_CAT_ID":"45677","GP_ID":"226154359","OBJECT_TYPE":"PAYLOAD","CENTER_NAME":"EARTH","LAUNCH_DATE":"2020-06-04","TIME_SYSTEM":"UTC","TLE_LINE1":"1 45677U 20035W   23051.41123266  .00002043  00000-0  15605-3 0  9994","INCLINATION":"53.0551","PERIAPSIS":"546.267","RCS_SIZE":"LARGE","RA_OF_ASC_NODE":"24.3248","TLE_LINE2":"2 45677  53.0551  24.3248 0001393  85.8302 274.2846 15.06394057150936","ARG_OF_PERICENTER":"85.8302","DECAY_DATE":null,"OBJECT_NAME":"STARLINK-1392","MEAN_ANOMALY":"274.2846","OBJECT_ID":"2020-035W","BSTAR":"0.00015605000000","FILE":"3815761","REF_FRAME":"TEME","MEAN_MOTION":"15.06394057","MEAN_MOTION_DDOT":"0.0000000000000","CLASSIFICATION_TYPE":"U","SEMIMAJOR_AXIS":"6925.367","APOAPSIS":"548.196","PERIOD":"95.593","MEAN_MOTION_DOT":"0.00002043","COUNTRY_CODE":"US","SITE":"AFETR"},{"TLE_LINE2":"2 45678  53.0549  12.2655 0000570  74.3588 285.7464 15.06390006150738","RA_OF_ASC_NODE":"12.2655","DECAY_DATE":null,"ARG_OF_PERICENTER":"74.3588","TLE_LINE1":"1 45678U 20035X   23051.86922217 -.00002689  00000-0 -16174-3 0  9997","TIME_SYSTEM":"UTC","CENTER_NAME":"EARTH","LAUNCH_DATE":"2020-06-04","RCS_SIZE":"LARGE","PERIAPSIS":"546.849","INCLINATION":"53.0549","MEAN_ELEMENT_THEORY":"SGP4","NORAD_CAT_ID":"45678","OBJECT_TYPE":"PAYLOAD","GP_ID":"226178068","ECCENTRICITY":"0.00005700","EPOCH":"2023-02-20T20:51:40.795488","EPHEMERIS_TYPE":"0","ELEMENT_SET_NO":"999","REV_AT_EPOCH":"15073","SITE":"AFETR","COUNTRY_CODE":"US","PERIOD":"95.593","MEAN_MOTION_DOT":"-0.00002689","APOAPSIS":"547.639","SEMIMAJOR_AXIS":"6925.379","MEAN_MOTION_DDOT":"0.0000000000000","CLASSIFICATION_TYPE":"U","REF_FRAME":"TEME","FILE":"3816649","MEAN_MOTION":"15.06390006","OBJECT_NAME":"STARLINK-1393","BSTAR":"-0.00016174000000","OBJECT_ID":"2020-035X","MEAN_ANOMALY":"285.7464"},{"GP_ID":"226178055","OBJECT_TYPE":"PAYLOAD","MEAN_ELEMENT_THEORY":"SGP4","NORAD_CAT_ID":"45679","ELEMENT_SET_NO":"999","EPHEMERIS_TYPE":"0","REV_AT_EPOCH":"15070","EPOCH":"2023-02-20T14:34:49.128384","ECCENTRICITY":"0.00016220","DECAY_DATE":null,"ARG_OF_PERICENTER":"94.2479","TLE_LINE2":"2 45679  53.0554  13.4380 0001622  94.2479 265.8695 15.06407047150708","RA_OF_ASC_NODE":"13.4380","INCLINATION":"53.0554","PERIAPSIS":"546.069","RCS_SIZE":"LARGE","TLE_LINE1":"1 45679U 20035Y   23051.60751306  .00020294  00000-0  13771-2 0  9998","CENTER_NAME":"EARTH","LAUNCH_DATE":"2020-06-04","TIME_SYSTEM":"UTC","MEAN_MOTION":"15.06407047","FILE":"3816648","REF_FRAME":"TEME","BSTAR":"0.00137710000000","OBJECT_ID":"2020-035Y","MEAN_ANOMALY":"265.8695","OBJECT_NAME":"STARLINK-1394","COUNTRY_CODE":"US","SITE":"AFETR","MEAN_MOTION_DOT":"0.00020294","PERIOD":"95.592","APOAPSIS":"548.315","CLASSIFICATION_TYPE":"U","MEAN_MOTION_DDOT":"0.0000000000000","SEMIMAJOR_AXIS":"6925.327"},{"OBJECT_NAME":"STARLINK-1395","OBJECT_ID":"2020-035Z","MEAN_ANOMALY":"269.9311","BSTAR":"0.00043624000000","FILE":"3816649","REF_FRAME":"TEME","MEAN_MOTION":"15.06397274","CLASSIFICATION_TYPE":"U","MEAN_MOTION_DDOT":"0.0000000000000","SEMIMAJOR_AXIS":"6925.357","APOAPSIS":"548.232","PERIOD":"95.592","MEAN_MOTION_DOT":"0.00006222","COUNTRY_CODE":"US","SITE":"AFETR","EPOCH":"2023-02-20T14:45:25.365888","ECCENTRICITY":"0.00014580","REV_AT_EPOCH":"15069","ELEMENT_SET_NO":"999","EPHEMERIS_TYPE":"0","NORAD_CAT_ID":"45680","MEAN_ELEMENT_THEORY":"SGP4","OBJECT_TYPE":"PAYLOAD","GP_ID":"226178071","CENTER_NAME":"EARTH","LAUNCH_DATE":"2020-06-04","TIME_SYSTEM":"UTC","TLE_LINE1":"1 45680U 20035Z   23051.61487692  .00006222  00000-0  43624-3 0  9991","PERIAPSIS":"546.212","INCLINATION":"53.0539","RCS_SIZE":"LARGE","RA_OF_ASC_NODE":"13.4106","TLE_LINE2":"2 45680  53.0539  13.4106 0001458  90.1845 269.9311 15.06397274150696","ARG_OF_PERICENTER":"90.1845","DECAY_DATE":null},{"CLASSIFICATION_TYPE":"U","MEAN_MOTION_DDOT":"0.0000000000000","SEMIMAJOR_AXIS":"6925.370","APOAPSIS":"548.130","MEAN_MOTION_DOT":"0.00001190","PERIOD":"95.593","COUNTRY_CODE":"US","SITE":"AFETR","MEAN_ANOMALY":"262.8557","OBJECT_ID":"2020-035AA","BSTAR":"0.00009880300000","OBJECT_NAME":"STARLINK-1396","MEAN_MOTION":"15.06392995","FILE":"3816650","REF_FRAME":"TEME","PERIAPSIS":"546.340","INCLINATION":"53.0542","RCS_SIZE":"LARGE","CENTER_NAME":"EARTH","LAUNCH_DATE":"2020-06-04","TIME_SYSTEM":"UTC","TLE_LINE1":"1 45681U 20035AA  23051.61119284  .00001190  00000-0  98803-4 0  9990","ARG_OF_PERICENTER":"97.2578","DECAY_DATE":null,"RA_OF_ASC_NODE":"13.4281","TLE_LINE2":"2 45681  53.0542  13.4281 0001292  97.2578 262.8557 15.06392995150691","REV_AT_EPOCH":"15069","ELEMENT_SET_NO":"999","EPHEMERIS_TYPE":"0","EPOCH":"2023-02-20T14:40:07.061376","ECCENTRICITY":"0.00012920","OBJECT_TYPE":"PAYLOAD","GP_ID":"226178082","MEAN_ELEMENT_THEORY":"SGP4","NORAD_CAT_ID":"45681"},{"ARG_OF_PERICENTER":"117.3080","DECAY_DATE":null,"RA_OF_ASC_NODE":"14.2889","TLE_LINE2":"2 45682  53.0538  14.2889 0001934 117.3080 242.8106 15.06453911151061","INCLINATION":"53.0538","PERIAPSIS":"545.709","RCS_SIZE":"LARGE","LAUNCH_DATE":"2020-06-04","CENTER_NAME":"EARTH","TIME_SYSTEM":"UTC","TLE_LINE1":"1 45682U 20035AB  23051.41957848  .00027364  00000-0  18461-2 0  9996","OBJECT_TYPE":"PAYLOAD","GP_ID":"226155111","NORAD_CAT_ID":"45682","MEAN_ELEMENT_THEORY":"SGP4","REV_AT_EPOCH":"15106","ELEMENT_SET_NO":"999","EPHEMERIS_TYPE":"0","EPOCH":"2023-02-20T10:04:11.580672","ECCENTRICITY":"0.00019340","PERIOD":"95.589","MEAN_MOTION_DOT":"0.00027364","COUNTRY_CODE":"US","SITE":"AFETR","CLASSIFICATION_TYPE":"U","MEAN_MOTION_DDOT":"0.0000000000000","SEMIMAJOR_AXIS":"6925.183","APOAPSIS":"548.388","MEAN_MOTION":"15.06453911","FILE":"3815761","REF_FRAME":"TEME","MEAN_ANOMALY":"242.8106","OBJECT_ID":"2020-035AB","BSTAR":"0.00184610000000","OBJECT_NAME":"STARLINK-1397"}];
